OBJECT_NAME,OBJECT_ID,EPOCH,MEAN_MOTION,ECCENTRICITY,INCLINATION,RA_OF_ASC_NODE,ARG_OF_PERICENTER,MEAN_ANOMALY,EPHEMERIS_TYPE,CLASSIFICATION_TYPE,NORAD_CAT_ID,ELEMENT_SET_NO,REV_AT_EPOCH,BSTAR,MEAN_MOTION_DOT,MEAN_MOTION_DDOT
INTELSAT 23 (IS-23),2012-057A,2026-07-14T18:17:55.369824,1.00273521,.0000362,0.0148,33.7286,157.7686,322.6164,0,U,38867,999,5023,0,-.293E-5,0
FM-6,2013-058A,2026-07-13T23:10:32.594592,1.00270909,.00013903,0.0142,33.4803,144.8411,344.7900,0,U,39360,999,4634,0,-.21E-6,0
INTELSAT 30 (IS-30),2014-062A,2026-07-13T19:51:12.292704,1.00270855,.00014688,0.0159,46.9890,332.6212,114.8422,0,U,40271,999,706,0,-.156E-5,0
DIRECTV 14,2014-078B,2026-07-14T14:39:21.608928,1.00269916,.0000526,0.0123,45.1480,293.7963,74.1203,0,U,40333,999,4231,0,-.133E-5,0
DIRECTV 15,2015-026A,2026-07-14T16:20:59.066016,1.00271323,.0000099,0.0176,71.4979,242.5429,120.8693,0,U,40663,999,4073,0,-.111E-5,0
SKY MEXICO-1,2015-026B,2026-07-14T13:02:31.518240,1.00270202,.0002349,0.0172,32.6899,103.2479,273.2909,0,U,40664,999,4072,0,-.242E-5,0
INTELSAT 34 (IS-34),2015-039A,2026-07-14T06:18:31.912704,1.00271009,.00005547,0.0110,352.6276,9.3806,329.2648,0,U,40874,999,3990,0,-.292E-5,0
INTELSAT 31 (IS-31),2016-035A,2026-07-13T21:34:01.136064,1.00270917,.0001186,0.0229,276.7908,13.0074,230.4271,0,U,41581,999,3695,0,-.156E-5,0
INTELSAT 36 (IS-36),2016-053A,2026-07-14T20:02:43.381248,1.00270291,.0002409,0.0105,29.0871,310.4577,322.3027,0,U,41747,999,3623,0,-.32E-6,0
INTELSAT 32E (IS-32E),2017-007B,2026-07-14T18:20:40.106976,1.00266622,.0000277,0.0230,50.3038,277.5143,196.7998,0,U,41945,999,3450,0,0,0
INTELSAT 35E (IS-35E),2017-041A,2026-07-14T18:23:09.869280,1.00267005,.0001618,0.0257,55.5687,55.6099,62.7373,0,U,42818,999,3309,0,0,0
INTELSAT 37E (IS-37E),2017-059A,2026-07-14T18:27:54.412992,1.00269764,.0002573,0.0179,40.8260,82.7055,68.0542,0,U,42950,999,3234,0,-.15E-5,0
AZERSPACE 2 (IS-38),2018-074A,2026-07-14T20:37:07.300992,1.00270157,.0001294,0.0269,55.5887,67.9093,163.6155,0,U,43632,999,2872,0,0,0
HORIZONS-3E,2018-074B,2026-07-13T15:21:38.465856,1.00270118,.00009408,0.0498,224.9289,53.6947,52.2963,0,U,43633,999,2860,0,-.35E-6,0
AT&T T-16,2019-034A,2026-07-14T19:46:46.069248,1.00268430,.0000616,0.0157,70.7114,248.2150,169.5701,0,U,44333,999,2591,0,-.123E-5,0
INTELSAT 39 (IS-39),2019-049B,2026-07-13T22:12:21.718368,1.00272225,.00007329,0.0241,49.4551,282.1376,355.2527,0,U,44476,999,2539,0,0,0
GALAXY 30 (G-30),2020-056C,2026-07-14T17:57:19.843776,1.00271630,.0001966,0.0161,49.1335,66.2778,321.5171,0,U,46114,999,2156,0,.29E-6,0
GALAXY 33 (G-33),2022-128A,2026-07-14T17:55:05.059776,1.00272050,.0001771,0.0139,31.8135,88.6741,307.8857,0,U,54026,999,1401,0,.71E-6,0
GALAXY 34 (G-34),2022-128B,2026-07-14T16:13:29.785152,1.00276000,.0001549,0.0271,41.8092,89.7731,275.3412,0,U,54027,999,1418,0,0,0
GALAXY 31 (G-31),2022-153A,2026-07-14T16:15:52.055712,1.00271000,.0000961,0.0158,70.0542,49.7154,295.7132,0,U,54243,999,740,0,.5E-7,0
GALAXY 32 (G-32),2022-153B,2026-07-14T19:49:45.781248,1.00269793,.0001403,0.0085,43.9656,4.1212,91.0221,0,U,54244,999,1342,0,-.182E-5,0
GALAXY 35 (G-35),2022-170A,2026-07-14T19:49:08.339808,1.00269991,.0001918,0.0203,75.4606,41.4513,19.9305,0,U,54741,999,1317,0,-.17E-5,0
GALAXY 36 (G-36),2022-170B,2026-07-14T19:50:08.246112,1.00270252,.0002389,0.0065,114.0289,346.8077,40.3734,0,U,54742,999,1305,0,-.194E-5,0
GALAXY 37 (G-37),2023-112A,2026-07-13T23:07:32.881728,1.00271325,.00017395,0.0218,73.5270,44.1230,34.0616,0,U,57493,999,1081,0,.42E-6,0
